ONEWEB-0528             
1 54643U 22166B   24086.95521937  .00000026  00000+0  32264-4 0  9998
2 54643  87.9278  45.6350 0001765  78.7449 281.3883 13.21824839 64246
ONEWEB-0540             
1 54645U 22166D   24087.13735273  .00000053  00000+0  95923-4 0  9992
2 54645  87.9277  45.6232 0002079  74.2814 285.8549 13.21830053 64728
ONEWEB-0542             
1 54646U 22166E   24086.92524762  .00000007  00000+0 -13883-4 0  9993
2 54646  87.9280  45.6423 0002432  78.8124 281.3283 13.21823688 64230
ONEWEB-0545             
1 54647U 22166F   24086.89213121  .00000022  00000+0  22797-4 0  9994
2 54647  87.9269  45.6779 0002305  70.2499 289.8884 13.21827930 64191
ONEWEB-0580             
1 54648U 22166G   24087.16810206 -.00000056  00000+0 -16638-3 0  9998
2 54648  87.9279  45.5854 0002532  78.8439 281.2979 13.21827829 64734
ONEWEB-0582             
1 54649U 22166H   24087.13498039  .00000100  00000+0  21184-3 0  9992
2 54649  87.9276  45.6322 0001960  71.6117 288.5230 13.21823482 64710
ONEWEB-0583             
1 54650U 22166J   24086.91892843 -.00000316  00000+0 -79595-3 0  9990
2 54650  87.9272  45.6767 0001591  86.3094 273.8222 13.21825131 64225
